NORAD_CAT_ID,OBJECT_NAME,OBJECT_TYPE,EPOCH,MEAN_MOTION,ECCENTRICITY,INCLINATION,RA_OF_ASC_NODE,ARG_OF_PERICENTER,MEAN_ANOMALY,BSTAR,MEAN_MOTION_DOT,MEAN_MOTION_DDOT,TLE_LINE0,TLE_LINE1,TLE_LINE2,SEMIMAJOR_AXIS,PERIOD,APOGEE,PERIGEE,DECAYED
53965.0,STARLINK-4578,PAYLOAD,2022-10-27 18:00:00,15.54286566,0.0001934,53.2173,344.3003,30.7566,111.9187,-0.019837,-0.01185147,0.0,0 STARLINK-4578,1 53965U 22125B   22300.75001157 -.01185147  00000-0 -19837-1 0  9991,2 53965  53.2173 344.3003 0001934  30.7566 111.9187 15.54286566  3810,6782.364000000001,92.647,405.541,402.918,0.0
53965.0,STARLINK-4578,PAYLOAD,2022-10-27 22:00:00,15.53858547,0.0001651,53.2175,343.4975,28.8757,326.7678,-0.020168,-0.01185893,0.0,0 STARLINK-4578,1 53965U 22125B   22300.91667824 -.01185893  00000-0 -20168-1 0  9995,2 53965  53.2175 343.4975 0001651  28.8757 326.7678 15.53858547  1302,6783.61,92.673,406.595,404.355,0.0
53965.0,STARLINK-4578,PAYLOAD,2022-10-28 04:00:00,15.53335883,0.0004926,53.2177,342.2973,273.4965,41.0538,-0.023568,-0.01364629,0.0,0 STARLINK-4578,1 53965U 22125B   22301.16667824 -.01364629  00000-0 -23568-1 0  9996,2 53965  53.2177 342.2973 0004926 273.4965  41.0538 15.53335883  3875,6785.130999999999,92.704,410.339,403.654,0.0
53965.0,STARLINK-4578,PAYLOAD,2022-10-28 12:00:02,15.52355519,0.0006772,53.2176,340.6980000000001,270.8122,108.2552,-0.021143,-0.01180099,0.0,0 STARLINK-4578,1 53965U 22125B   22301.50002315 -.01180099  00000-0 -21143-1 0  9996,2 53965  53.2176 340.6980 0006772 270.8122 108.2552 15.52355519  3937,6787.988,92.762,414.45,405.256,0.0
53965.0,STARLINK-4578,PAYLOAD,2022-10-28 14:00:01,15.52147067,0.0001668,53.2175,340.2990000000001,39.5461,85.4556,-0.021509,-0.01206234,0.0,0 STARLINK-4578,1 53965U 22125B   22301.58335648 -.01206234  00000-0 -21509-1 0  9998,2 53965  53.2175 340.2990 0001668  39.5461  85.4556 15.52147067  1304,6788.595,92.775,411.593,409.328,0.0
53965.0,STARLINK-4578,PAYLOAD,2022-10-28 20:00:01,15.51503299,0.000156,53.2175,339.0985,37.0944,45.2692,-0.022044,-0.01207638,0.0,0 STARLINK-4578,1 53965U 22125B   22301.83334491 -.01207638  00000-0 -22044-1 0  9995,2 53965  53.2175 339.0985 0001560  37.0944  45.2692 15.51503299  3987,6790.473000000001,92.813,413.398,411.279,0.0
53965.0,STARLINK-4578,PAYLOAD,2022-10-28 22:00:01,15.51281354,0.0001688,53.2174,338.6988,37.2585,150.8512,-0.021927,-0.01193084,0.0,0 STARLINK-4578,1 53965U 22125B   22301.91668981 -.01193084  00000-0 -21927-1 0  9996,2 53965  53.2174 338.6988 0001688  37.2585 150.8512 15.51281354  1301,6791.121,92.826,414.132,411.84,0.0
53965.0,STARLINK-4578,PAYLOAD,2022-10-29 04:00:00,15.50499197,0.000174,53.2177,337.5024,32.6976,112.0187,-0.012903,-0.00686715,0.0,0 STARLINK-4578,1 53965U 22125B   22302.16667824 -.00686715  00000-0 -12903-1 0  9990,2 53965  53.2177 337.5024 0001740  32.6976 112.0187 15.50499197  4031,6793.405,92.873,416.452,414.087,0.0
53965.0,STARLINK-4578,PAYLOAD,2022-10-29 12:00:00,15.49888176,0.0001789,53.2175,335.9102,35.3325,170.7471,-9.3194e-05,-5.738e-05,0.0,0 STARLINK-4578,1 53965U 22125B   22302.50001157 -.00005738  00000-0 -93194-4 0  9993,2 53965  53.2175 335.9102 0001789  35.3325 170.7471 15.49888176  1300,6795.19,92.91,418.271,415.839,0.0
53965.0,STARLINK-4578,PAYLOAD,2022-10-29 22:00:01,15.49879267,0.0001330999999999,53.218,333.9225,48.129,323.955,0.0010286,0.00058351,0.0,0 STARLINK-4578,1 53965U 22125B   22302.91668981  .00058351  00000-0  10286-2 0  9998,2 53965  53.2180 333.9225 0001331  48.1290 323.9550 15.49879267  1307,6795.215999999999,92.91,417.985,416.176,0.0
53965.0,STARLINK-4578,PAYLOAD,2022-10-30 00:00:00,15.49883128,0.0001329,53.2179,333.5235,49.8996,67.351,0.0011795,0.00067063,0.0,0 STARLINK-4578,1 53965U 22125B   22303.00001157  .00067063  00000-0  11795-2 0  9991,2 53965  53.2179 333.5235 0001329  49.8996  67.3510 15.49883128  4163,6795.205,92.91,417.973,416.167,0.0
53965.0,STARLINK-4578,PAYLOAD,2022-10-30 14:00:01,15.49879724,0.0001509,53.2173,330.7336,46.8174,87.1418,-0.0240699999999999,-0.01240793,0.0,0 STARLINK-4578,1 53965U 22125B   22303.58334491 -.01240793  00000-0 -24070-1 0  9999,2 53965  53.2173 330.7336 0001509  46.8174  87.1418 15.49879724  1300,6795.215,92.91,418.105,416.054,0.0
53965.0,STARLINK-4578,PAYLOAD,2022-10-30 22:00:01,15.48992213,0.0001448,53.2173,329.1385,53.6776,140.7103,-0.0239139999999999,-0.01198532,0.0,0 STARLINK-4578,1 53965U 22125B   22303.91668981 -.01198532  00000-0 -23914-1 0  9999,2 53965  53.2173 329.1385 0001448  53.6776 140.7103 15.48992213  1307,6797.81,92.964,420.659,418.691,0.0
53965.0,STARLINK-4578,PAYLOAD,2022-10-31 14:00:01,15.4728315,0.0001369,53.2174,325.9636,47.4653,264.4596,-0.0255379999999999,-0.01204644,0.0,0 STARLINK-4578,1 53965U 22125B   22304.58334491 -.01204644  00000-0 -25538-1 0  9995,2 53965  53.2174 325.9636 0001369  47.4653 264.4596 15.47283150  1300,6802.815,93.066,425.611,423.74800000000016,0.0
53965.0,STARLINK-4578,PAYLOAD,2022-10-31 20:00:01,15.46636718,0.0001349,53.2177,324.7715,55.4267,209.6066,-0.026026,-0.01200674,0.0,0 STARLINK-4578,1 53965U 22125B   22304.83335648 -.01200674  00000-0 -26026-1 0  9990,2 53965  53.2177 324.7715 0001349  55.4267 209.6066 15.46636718  4448,6804.71,93.105,427.49300000000005,425.657,0.0
53965.0,STARLINK-4578,PAYLOAD,2022-10-31 22:00:01,15.46420417,0.0001242999999999,53.2174,324.3748,48.964,320.2884,-0.026157,-0.01197912,0.0,0 STARLINK-4578,1 53965U 22125B   22304.91668981 -.01197912  00000-0 -26157-1 0  9993,2 53965  53.2174 324.3748 0001243  48.9640 320.2884 15.46420417  1309,6805.345,93.118,428.056,426.364,0.0
53965.0,STARLINK-4578,PAYLOAD,2022-11-01 12:00:00,15.44937691,0.0001452,53.2176,321.6082,47.2865,329.6134,-0.0280829999999999,-0.01219786,0.0,0 STARLINK-4578,1 53965U 22125B   22305.50001157 -.01219786  00000-0 -28083-1 0  9999,2 53965  53.2176 321.6082 0001452  47.2865 329.6134 15.44937691  4551,6809.698,93.208,432.552,430.574,0.0
53965.0,STARLINK-4578,PAYLOAD,2022-11-01 14:00:01,15.44709969,0.0001613,53.2173,321.2119,48.3801,72.2306,-0.027857,-0.01202294,0.0,0 STARLINK-4578,1 53965U 22125B   22305.58334491 -.01202294  00000-0 -27857-1 0  9991,2 53965  53.2173 321.2119 0001613  48.3801  72.2306 15.44709969  1303,6810.3669999999975,93.221,433.331,431.134,0.0
53965.0,STARLINK-4578,PAYLOAD,2022-11-01 22:00:00,15.43850106,0.0001447,53.2173,319.6298,56.4408,118.3407,-0.0286,-0.01198854,0.0,0 STARLINK-4578,1 53965U 22125B   22305.91667824 -.01198854  00000-0 -28600-1 0  9990,2 53965  53.2173 319.6298 0001447  56.4408 118.3407 15.43850106  1303,6812.896,93.273,435.747,433.775,0.0
53965.0,STARLINK-4578,PAYLOAD,2022-11-02 12:00:00,15.42345886,0.000154,53.2174,316.8725,52.5145,124.5828,-0.02988,-0.01190966,0.0,0 STARLINK-4578,1 53965U 22125B   22306.50001157 -.01190966  00000-0 -29880-1 0  9994,2 53965  53.2174 316.8725 0001540  52.5145 124.5828 15.42345886  4703,6817.325,93.364,440.24,438.14,0.0
53965.0,STARLINK-4578,PAYLOAD,2022-11-02 14:00:01,15.42137936,0.0001341999999999,53.2171,316.4783,55.8877,224.138,-0.030382,-0.01201425,0.0,0 STARLINK-4578,1 53965U 22125B   22306.58334491 -.01201425  00000-0 -30382-1 0  9994,2 53965  53.2171 316.4783 0001342  55.8877 224.1380 15.42137936  1306,6817.938,93.377,440.718,438.888,0.0
53965.0,STARLINK-4578,PAYLOAD,2022-11-02 22:00:00,15.41276576,0.0001254,53.2173,314.9031,53.4928,277.6136,-0.031091,-0.01194976,0.0,0 STARLINK-4578,1 53965U 22125B   22306.91667824 -.01194976  00000-0 -31091-1 0  9990,2 53965  53.2173 314.9031 0001254  53.4928 277.6136 15.41276576  1305,6820.478,93.429,443.198,441.487,0.0
53965.0,STARLINK-4578,PAYLOAD,2022-11-03 04:00:00,15.40635501,0.0001386999999999,53.2176,313.7253,56.2966,222.4409,-0.031823,-0.01197008,0.0,0 STARLINK-4578,1 53965U 22125B   22307.16667824 -.01197008  00000-0 -31823-1 0  9990,2 53965  53.2176 313.7253 0001387  56.2966 222.4409 15.40635501  4806,6822.37,93.468,445.181,443.288,0.0
53965.0,STARLINK-4578,PAYLOAD,2022-11-03 14:00:01,15.39573542,0.0001341999999999,53.217,311.7649,47.7974,22.3682,-0.03335,-0.01209653,0.0,0 STARLINK-4578,1 53965U 22125B   22307.58334491 -.01209653  00000-0 -33350-1 0  9994,2 53965  53.2170 311.7649 0001342  47.7974  22.3682 15.39573542  1308,6825.505999999999,93.532,448.287,446.455,0.0
53965.0,STARLINK-4578,PAYLOAD,2022-11-03 20:00:01,15.38919584,0.0001199,53.2174,310.5866,54.9808,321.3433,-0.033616,-0.01194653,0.0,0 STARLINK-4578,1 53965U 22125B   22307.83335648 -.01194653  00000-0 -33616-1 0  9995,2 53965  53.2174 310.5866 0001199  54.9808 321.3433 15.38919584  4911,6827.44,93.572,450.124,448.486,0.0
53965.0,STARLINK-4578,PAYLOAD,2022-11-03 22:00:00,15.38707207,0.0001402,53.2173,310.1947,55.9086,62.2513,-0.033961,-0.01198204,0.0,0 STARLINK-4578,1 53965U 22125B   22307.91667824 -.01198204  00000-0 -33961-1 0  9997,2 53965  53.2173 310.1947 0001402  55.9086  62.2513 15.38707207  1309,6828.068,93.585,450.89,448.976,0.0
53965.0,STARLINK-4578,PAYLOAD,2022-11-04 12:00:00,15.3720537,0.000147,53.2172,307.4588,50.0858,59.5737,-0.035521,-0.01193525,0.0,0 STARLINK-4578,1 53965U 22125B   22308.50001157 -.01193525  00000-0 -35521-1 0  9999,2 53965  53.2172 307.4588 0001470  50.0858  59.5737 15.37205370  5018,6832.515,93.676,455.384,453.375,0.0
53965.0,STARLINK-4578,PAYLOAD,2022-11-04 14:00:01,15.36993531,0.0001468,53.2172,307.0677,58.548,152.4966,-0.03592,-0.01198168,0.0,0 STARLINK-4578,1 53965U 22125B   22308.58334491 -.01198168  00000-0 -35920-1 0  9998,2 53965  53.2172 307.0677 0001468  58.5480 152.4966 15.36993531  1301,6833.143,93.689,456.011,454.004,0.0
53965.0,STARLINK-4578,PAYLOAD,2022-11-04 22:00:01,15.36139601,0.0001406,53.2174,305.5057,54.0869,201.9182,-0.037068,-0.01202218,0.0,0 STARLINK-4578,1 53965U 22125B   22308.91668981 -.01202218  00000-0 -37068-1 0  9996,2 53965  53.2174 305.5057 0001406  54.0869 201.9182 15.36139601  1302,6835.675,93.741,458.501,456.579,0.0
